[{"OBJECT_NAME":"ONEWEB-0388","OBJECT_ID":"2021-090AM","EPOCH":"2026-04-12T07:05:38.071392","MEAN_MOTION":13.1972754,"ECCENTRICITY":0.0001703,"INCLINATION":87.9169,"RA_OF_ASC_NODE":318.1102,"ARG_OF_PERICENTER":90.1311,"MEAN_ANOMALY":270.0017,"EPHEMERIS_TYPE":0,"CLASSIFICATION_TYPE":"U","NORAD_CAT_ID":49314,"ELEMENT_SET_NO":999,"REV_AT_EPOCH":21772,"BSTAR":0.00014758,"MEAN_MOTION_DOT":7.2e-07,"MEAN_MOTION_DDOT":0.0},{"OBJECT_NAME":"ONEWEB-0389","OBJECT_ID":"2021-132A","EPOCH":"2026-04-12T03:13:18.188256","MEAN_MOTION":13.1764896,"ECCENTRICITY":0.0001465,"INCLINATION":87.9184,"RA_OF_ASC_NODE":18.9887,"ARG_OF_PERICENTER":86.1846,"MEAN_ANOMALY":273.9453,"EPHEMERIS_TYPE":0,"CLASSIFICATION_TYPE":"U","NORAD_CAT_ID":50469,"ELEMENT_SET_NO":999,"REV_AT_EPOCH":20938,"BSTAR":-6.793000000000001e-05,"MEAN_MOTION_DOT":-1.4e-07,"MEAN_MOTION_DDOT":0.0},{"OBJECT_NAME":"ONEWEB-0390","OBJECT_ID":"2021-132B","EPOCH":"2026-04-12T05:05:05.327808","MEAN_MOTION":13.17650751,"ECCENTRICITY":0.0001745,"INCLINATION":87.9184,"RA_OF_ASC_NODE":18.9738,"ARG_OF_PERICENTER":71.5767,"MEAN_ANOMALY":288.5554,"EPHEMERIS_TYPE":0,"CLASSIFICATION_TYPE":"U","NORAD_CAT_ID":50470,"ELEMENT_SET_NO":999,"REV_AT_EPOCH":20939,"BSTAR":0.000236,"MEAN_MOTION_DOT":1.05e-06,"MEAN_MOTION_DDOT":0.0},{"OBJECT_NAME":"ONEWEB-0391","OBJECT_ID":"2021-132C","EPOCH":"2026-04-12T05:07:30.513504","MEAN_MOTION":13.17650299,"ECCENTRICITY":9.49e-05,"INCLINATION":87.9185,"RA_OF_ASC_NODE":18.9827,"ARG_OF_PERICENTER":81.0963,"MEAN_ANOMALY":279.0276,"EPHEMERIS_TYPE":0,"CLASSIFICATION_TYPE":"U","NORAD_CAT_ID":50471,"ELEMENT_SET_NO":999,"REV_AT_EPOCH":20939,"BSTAR":0.00023066000000000002,"MEAN_MOTION_DOT":1.02e-06,"MEAN_MOTION_DDOT":0.0},{"OBJECT_NAME":"ONEWEB-0392","OBJECT_ID":"2021-132D","EPOCH":"2026-04-12T04:01:54.726528","MEAN_MOTION":13.17648209,"ECCENTRICITY":0.0001447,"INCLINATION":87.9197,"RA_OF_ASC_NODE":18.9551,"ARG_OF_PERICENTER":83.9864,"MEAN_ANOMALY":276.1432,"EPHEMERIS_TYPE":0,"CLASSIFICATION_TYPE":"U","NORAD_CAT_ID":50472,"ELEMENT_SET_NO":999,"REV_AT_EPOCH":20942,"BSTAR":4.8152e-05,"MEAN_MOTION_DOT":3.2e-07,"MEAN_MOTION_DDOT":0.0},{"OBJECT_NAME":"ONEWEB-0393","OBJECT_ID":"2021-132E","EPOCH":"2026-04-12T05:16:02.296128","MEAN_MOTION":13.17649623,"ECCENTRICITY":0.0001649,"INCLINATION":87.9186,"RA_OF_ASC_NODE":18.9671,"ARG_OF_PERICENTER":80.6334,"MEAN_ANOMALY":279.4984,"EPHEMERIS_TYPE":0,"CLASSIFICATION_TYPE":"U","NORAD_CAT_ID":50473,"ELEMENT_SET_NO":999,"REV_AT_EPOCH":20942,"BSTAR":0.00018622,"MEAN_MOTION_DOT":8.5e-07,"MEAN_MOTION_DDOT":0.0},{"OBJECT_NAME":"ONEWEB-0394","OBJECT_ID":"2021-132F","EPOCH":"2026-04-11T22:24:16.884864","MEAN_MOTION":13.18686004,"ECCENTRICITY":0.0001643,"INCLINATION":87.923,"RA_OF_ASC_NODE":348.6135,"ARG_OF_PERICENTER":85.7099,"MEAN_ANOMALY":274.4221,"EPHEMERIS_TYPE":0,"CLASSIFICATION_TYPE":"U","NORAD_CAT_ID":50474,"ELEMENT_SET_NO":999,"REV_AT_EPOCH":21286,"BSTAR":5.7148e-05,"MEAN_MOTION_DOT":3.5e-07,"MEAN_MOTION_DDOT":0.0},{"OBJECT_NAME":"ONEWEB-0395","OBJECT_ID":"2021-132G","EPOCH":"2026-04-11T20:45:49.700448","MEAN_MOTION":13.11419237,"ECCENTRICITY":0.0001679,"INCLINATION":87.891,"RA_OF_ASC_NODE":34.2537,"ARG_OF_PERICENTER":75.1266,"MEAN_ANOMALY":285.0048,"EPHEMERIS_TYPE":0,"CLASSIFICATION_TYPE":"U","NORAD_CAT_ID":50475,"ELEMENT_SET_NO":999,"REV_AT_EPOCH":20702,"BSTAR":0.0008525399999999999,"MEAN_MOTION_DOT":3.15e-06,"MEAN_MOTION_DDOT":0.0},{"OBJECT_NAME":"ONEWEB-0396","OBJECT_ID":"2021-132H","EPOCH":"2026-04-12T01:53:18.506688","MEAN_MOTION":13.18685117,"ECCENTRICITY":0.0001635,"INCLINATION":87.9229,"RA_OF_ASC_NODE":348.5968,"ARG_OF_PERICENTER":83.1031,"MEAN_ANOMALY":277.0287,"EPHEMERIS_TYPE":0,"CLASSIFICATION_TYPE":"U","NORAD_CAT_ID":50476,"ELEMENT_SET_NO":999,"REV_AT_EPOCH":21292,"BSTAR":5.8278e-05,"MEAN_MOTION_DOT":3.6e-07,"MEAN_MOTION_DDOT":0.0},{"OBJECT_NAME":"ONEWEB-0397","OBJECT_ID":"2021-132J","EPOCH":"2026-04-12T02:14:41.287488","MEAN_MOTION":13.18684133,"ECCENTRICITY":0.0001774,"INCLINATION":87.9226,"RA_OF_ASC_NODE":348.5938,"ARG_OF_PERICENTER":88.3959,"MEAN_ANOMALY":271.7377,"EPHEMERIS_TYPE":0,"CLASSIFICATION_TYPE":"U","NORAD_CAT_ID":50477,"ELEMENT_SET_NO":999,"REV_AT_EPOCH":21290,"BSTAR":0.00023380000000000002,"MEAN_MOTION_DOT":1.05e-06,"MEAN_MOTION_DDOT":0.0},{"OBJECT_NAME":"ONEWEB-0398","OBJECT_ID":"2021-132K","EPOCH":"2026-04-11T12:39:57.746880","MEAN_MOTION":13.11417131,"ECCENTRICITY":0.0001782,"INCLINATION":87.8923,"RA_OF_ASC_NODE":34.3046,"ARG_OF_PERICENTER":68.9501,"MEAN_ANOMALY":291.1817,"EPHEMERIS_TYPE":0,"CLASSIFICATION_TYPE":"U","NORAD_CAT_ID":50478,"ELEMENT_SET_NO":999,"REV_AT_EPOCH":20687,"BSTAR":-0.0015076,"MEAN_MOTION_DOT":-5.22e-06,"MEAN_MOTION_DDOT":0.0},{"OBJECT_NAME":"ONEWEB-0399","OBJECT_ID":"2021-132L","EPOCH":"2026-04-12T06:39:05.594112","MEAN_MOTION":13.11413811,"ECCENTRICITY":0.0001594,"INCLINATION":87.8922,"RA_OF_ASC_NODE":34.1659,"ARG_OF_PERICENTER":93.4175,"MEAN_ANOMALY":266.7135,"EPHEMERIS_TYPE":0,"CLASSIFICATION_TYPE":"U","NORAD_CAT_ID":50479,"ELEMENT_SET_NO":999,"REV_AT_EPOCH":20696,"BSTAR":0.00028638000000000003,"MEAN_MOTION_DOT":1.14e-06,"MEAN_MOTION_DDOT":0.0},{"OBJECT_NAME":"ONEWEB-0400","OBJECT_ID":"2021-132M","EPOCH":"2026-04-12T01:43:48.137952","MEAN_MOTION":13.18684405,"ECCENTRICITY":0.0001766,"INCLINATION":87.9228,"RA_OF_ASC_NODE":348.5883,"ARG_OF_PERICENTER":74.8889,"MEAN_ANOMALY":285.2438,"EPHEMERIS_TYPE":0,"CLASSIFICATION_TYPE":"U","NORAD_CAT_ID":50480,"ELEMENT_SET_NO":999,"REV_AT_EPOCH":21289,"BSTAR":1.7169e-05,"MEAN_MOTION_DOT":2e-07,"MEAN_MOTION_DDOT":0.0},{"OBJECT_NAME":"ONEWEB-0401","OBJECT_ID":"2021-132N","EPOCH":"2026-04-12T02:47:57.862752","MEAN_MOTION":13.18688414,"ECCENTRICITY":0.000189,"INCLINATION":87.9229,"RA_OF_ASC_NODE":348.5755,"ARG_OF_PERICENTER":82.8129,"MEAN_ANOMALY":277.3218,"EPHEMERIS_TYPE":0,"CLASSIFICATION_TYPE":"U","NORAD_CAT_ID":50481,"ELEMENT_SET_NO":999,"REV_AT_EPOCH":21290,"BSTAR":0.00016173,"MEAN_MOTION_DOT":7.7e-07,"MEAN_MOTION_DDOT":0.0},{"OBJECT_NAME":"ONEWEB-0402","OBJECT_ID":"2021-132P","EPOCH":"2026-04-12T01:55:40.994976","MEAN_MOTION":13.18685443,"ECCENTRICITY":0.0002135,"INCLINATION":87.9228,"RA_OF_ASC_NODE":348.5736,"ARG_OF_PERICENTER":91.3396,"MEAN_ANOMALY":268.7981,"EPHEMERIS_TYPE":0,"CLASSIFICATION_TYPE":"U","NORAD_CAT_ID":50482,"ELEMENT_SET_NO":999,"REV_AT_EPOCH":21292,"BSTAR":-0.0007620900000000001,"MEAN_MOTION_DOT":-2.88e-06,"MEAN_MOTION_DDOT":0.0},{"OBJECT_NAME":"ONEWEB-0403","OBJECT_ID":"2021-132Q","EPOCH":"2026-04-12T02:31:19.111584","MEAN_MOTION":13.18685013,"ECCENTRICITY":0.0001629,"INCLINATION":87.9229,"RA_OF_ASC_NODE":348.592,"ARG_OF_PERICENTER":81.1371,"MEAN_ANOMALY":278.9946,"EPHEMERIS_TYPE":0,"CLASSIFICATION_TYPE":"U","NORAD_CAT_ID":50483,"ELEMENT_SET_NO":999,"REV_AT_EPOCH":21288,"BSTAR":0.00030024,"MEAN_MOTION_DOT":1.31e-06,"MEAN_MOTION_DDOT":0.0}]