ONEWEB-0388             
1 49314U 21090AM  26102.29557953  .00000072  00000+0  14758-3 0  9995
2 49314  87.9169 318.1102 0001703  90.1311 270.0017 13.19727540217720
ONEWEB-0389             
1 50469U 21132A   26102.13423829 -.00000014  00000+0 -67930-4 0  9991
2 50469  87.9184  18.9887 0001465  86.1846 273.9453 13.17648960209383
ONEWEB-0390             
1 50470U 21132B   26102.21186722  .00000105  00000+0  23600-3 0  9994
2 50470  87.9184  18.9738 0001745  71.5767 288.5554 13.17650751209397
ONEWEB-0391             
1 50471U 21132C   26102.21354761  .00000102  00000+0  23066-3 0  9998
2 50471  87.9185  18.9827 0000949  81.0963 279.0276 13.17650299209390
ONEWEB-0392             
1 50472U 21132D   26102.16799452  .00000032  00000+0  48152-4 0  9999
2 50472  87.9197  18.9551 0001447  83.9864 276.1432 13.17648209209427
ONEWEB-0393             
1 50473U 21132E   26102.21947102  .00000085  00000+0  18622-3 0  9999
2 50473  87.9186  18.9671 0001649  80.6334 279.4984 13.17649623209428
ONEWEB-0394             
1 50474U 21132F   26101.93352876  .00000035  00000+0  57148-4 0  9998
2 50474  87.9230 348.6135 0001643  85.7099 274.4221 13.18686004212861
ONEWEB-0395             
1 50475U 21132G   26101.86515857  .00000315  00000+0  85254-3 0  9990
2 50475  87.8910  34.2537 0001679  75.1266 285.0048 13.11419237207020
ONEWEB-0396             
1 50476U 21132H   26102.07868642  .00000036  00000+0  58278-4 0  9995
2 50476  87.9229 348.5968 0001635  83.1031 277.0287 13.18685117212925
ONEWEB-0397             
1 50477U 21132J   26102.09353342  .00000105  00000+0  23380-3 0  9996
2 50477  87.9226 348.5938 0001774  88.3959 271.7377 13.18684133212906
ONEWEB-0398             
1 50478U 21132K   26101.52775170 -.00000522  00000+0 -15076-2 0  9998
2 50478  87.8923  34.3046 0001782  68.9501 291.1817 13.11417131206875
ONEWEB-0399             
1 50479U 21132L   26102.27714808  .00000114  00000+0  28638-3 0  9997
2 50479  87.8922  34.1659 0001594  93.4175 266.7135 13.11413811206966
ONEWEB-0400             
1 50480U 21132M   26102.07208493  .00000020  00000+0  17169-4 0  9999
2 50480  87.9228 348.5883 0001766  74.8889 285.2438 13.18684405212892
ONEWEB-0401             
1 50481U 21132N   26102.11664193  .00000077  00000+0  16173-3 0  9993
2 50481  87.9229 348.5755 0001890  82.8129 277.3218 13.18688414212900
ONEWEB-0402             
1 50482U 21132P   26102.08033559 -.00000288  00000+0 -76209-3 0  9998
2 50482  87.9228 348.5736 0002135  91.3396 268.7981 13.18685443212925
ONEWEB-0403             
1 50483U 21132Q   26102.10508231  .00000131  00000+0  30024-3 0  9996
2 50483  87.9229 348.5920 0001629  81.1371 278.9946 13.18685013212881
